{
    "links": {
        "self": "http://www.neowsapp.com/rest/v1/neo/54075595?api_key=iIulBulltgU6a56xZRHN4H3l9WmuAYTsLGpBGhQ2"
    },
    "id": "54075595",
    "neo_reference_id": "54075595",
    "name": "(2020 UZ2)",
    "designation": "2020 UZ2",
    "nasa_jpl_url": "http://ssd.jpl.nasa.gov/sbdb.cgi?sstr=54075595",
    "absolute_magnitude_h": 27.05,
    "estimated_diameter": {
        "kilometers": {
            "estimated_diameter_min": 0.01034082,
            "estimated_diameter_max": 0.0231227764
        },
        "meters": {
            "estimated_diameter_min": 10.3408199539,
            "estimated_diameter_max": 23.1227763601
        },
        "miles": {
            "estimated_diameter_min": 0.0064254856,
            "estimated_diameter_max": 0.0143678227
        },
        "feet": {
            "estimated_diameter_min": 33.9265757377,
            "estimated_diameter_max": 75.8621295933
        }
    },
    "is_potentially_hazardous_asteroid": false,
    "close_approach_data": [
        {
            "close_approach_date": "2020-10-16",
            "close_approach_date_full": "2020-Oct-16 08:28",
            "epoch_date_close_approach": 1602836880000,
            "relative_velocity": {
                "kilometers_per_second": "9.9683025759",
                "kilometers_per_hour": "35885.8892732174",
                "miles_per_hour": "22298.0960320166"
            },
            "miss_distance": {
                "astronomical": "0.0129509666",
                "lunar": "5.0379260074",
                "kilometers": "1937437.017801142",
                "miles": "1203867.5387820796"
            },
            "orbiting_body": "Earth"
        }
    ],
    "orbital_data": {
        "orbit_id": "1",
        "orbit_determination_date": "2020-10-21 05:12:17",
        "first_observation_date": "2020-10-18",
        "last_observation_date": "2020-10-21",
        "data_arc_in_days": 3,
        "observations_used": 18,
        "orbit_uncertainty": "8",
        "minimum_orbit_intersection": ".00410327",
        "jupiter_tisserand_invariant": "3.926",
        "epoch_osculation": "2459142.5",
        "eccentricity": ".481664061104293",
        "semi_major_axis": "1.795756777801178",
        "inclination": "3.03495665010107",
        "ascending_node_longitude": "196.7419037623908",
        "orbital_period": "878.9611875914688",
        "perihelion_distance": ".9308052754499032",
        "perihelion_argument": "147.2325432462943",
        "aphelion_distance": "2.660708280152454",
        "perihelion_time": "2459108.496117373177",
        "mean_anomaly": "13.92711978466328",
        "mean_motion": ".4095743988269525",
        "equinox": "J2000",
        "orbit_class": {
            "orbit_class_type": "APO",
            "orbit_class_description": "Near-Earth asteroid orbits which cross the Earth’s orbit similar to that of 1862 Apollo",
            "orbit_class_range": "a (semi-major axis) > 1.0 AU; q (perihelion) < 1.017 AU"
        }
    },
    "is_sentry_object": false
}